{"type": "FeatureCollection", "features": [ {"type": "Feature", "properties": {"norad_id": 34400, "name": "COSMOS 2251 DEB", "group": "cosmos-2251-debris", "lat": -45.71713657244666, "lon": -130.01074055851421, "alt_km": 416.48205325402796, "timestamp": "2025-12-08T10:52:03.342580+00:00", "meta": {"OBJECT_NAME": "COSMOS 2251 DEB", "OBJECT_ID": "1993-036QR", "EPOCH": "2025-12-07T10:39:47.765376", "MEAN_MOTION": 15.50577461, "ECCENTRICITY": 0.00065299, "INCLINATION": 73.9667, "RA_OF_ASC_NODE": 35.0631, "ARG_OF_PERICENTER": 270.1553, "MEAN_ANOMALY": 89.8912, "EPHEMERIS_TYPE": 0, "CLASSIFICATION_TYPE": "U", "NORAD_CAT_ID": 34400, "ELEMENT_SET_NO": 999, "REV_AT_EPOCH": 89892, "BSTAR": 0.004539213, "MEAN_MOTION_DOT": 0.00269027, "MEAN_MOTION_DDOT": 0}, "tle": {"line1": "1 34400U 93036QR  25341.44430284  .00269027  00000+0  45392-2 0  9996", "line2": "2 34400  73.9667  35.0631 0006529 270.1553  89.8912 15.50577461898928"}}, "geometry": {"type": "Point", "coordinates": [-130.01074055851421, -45.71713657244666]}}, {"type": "Feature", "properties": {"norad_id": 34409, "name": "COSMOS 2251 DEB", "group": "cosmos-2251-debris", "lat": 30.725823751501963, "lon": 125.20176079591538, "alt_km": 723.1277325737719, "timestamp": "2025-12-08T10:52:03.342590+00:00", "meta": {"OBJECT_NAME": "COSMOS 2251 DEB", "OBJECT_ID": "1993-036RA", "EPOCH": "2025-12-07T16:52:37.845984", "MEAN_MOTION": 14.58008506, "ECCENTRICITY": 0.0079617, "INCLINATION": 74.0629, "RA_OF_ASC_NODE": 316.4032, "ARG_OF_PERICENTER": 32.0951, "MEAN_ANOMALY": 141.987, "EPHEMERIS_TYPE": 0, "CLASSIFICATION_TYPE": "U", "NORAD_CAT_ID": 34409, "ELEMENT_SET_NO": 999, "REV_AT_EPOCH": 89119, "BSTAR": 0.00045556509, "MEAN_MOTION_DOT": 2.157e-05, "MEAN_MOTION_DDOT": 0}, "tle": {"line1": "1 34409U 93036RA  25341.70321581  .00002157  00000+0  45557-3 0  9996", "line2": "2 34409  74.0629 316.4032 0079617  32.0951 141.9870 14.58008506891194"}}, "geometry": {"type": "Point", "coordinates": [125.20176079591538, 30.725823751501963]}}, {"type": "Feature", "properties": {"norad_id": 34410, "name": "COSMOS 2251 DEB", "group": "cosmos-2251-debris", "lat": -27.78400950215405, "lon": -97.97476058903457, "alt_km": 527.6907565748388, "timestamp": "2025-12-08T10:52:03.342601+00:00", "meta": {"OBJECT_NAME": "COSMOS 2251 DEB", "OBJECT_ID": "1993-036RB", "EPOCH": "2025-12-07T19:19:01.043616", "MEAN_MOTION": 15.18216238, "ECCENTRICITY": 0.00208826, "INCLINATION": 73.7396, "RA_OF_ASC_NODE": 272.2499, "ARG_OF_PERICENTER": 114.4201, "MEAN_ANOMALY": 276.7771, "EPHEMERIS_TYPE": 0, "CLASSIFICATION_TYPE": "U", "NORAD_CAT_ID": 34410, "ELEMENT_SET_NO": 999, "REV_AT_EPOCH": 89699, "BSTAR": 0.0039922688, "MEAN_MOTION_DOT": 0.00083069, "MEAN_MOTION_DDOT": 0}, "tle": {"line1": "1 34410U 93036RB  25341.80487319  .00083069  00000+0  39923-2 0  9991", "line2": "2 34410  73.7396 272.2499 0020882 114.4201 276.7771 15.18216238896992"}}, "geometry": {"type": "Point", "coordinates": [-97.97476058903457, -27.78400950215405]}}, {"type": "Feature", "properties": {"norad_id": 34412, "name": "COSMOS 2251 DEB", "group": "cosmos-2251-debris", "lat": 12.193296816373898, "lon": 149.10470504341023, "alt_km": 753.1602061352651, "timestamp": "2025-12-08T10:52:03.342611+00:00", "meta": {"OBJECT_NAME": "COSMOS 2251 DEB", "OBJECT_ID": "1993-036RD", "EPOCH": "2025-12-07T17:31:28.425504", "MEAN_MOTION": 14.47055817, "ECCENTRICITY": 0.01870894, "INCLINATION": 73.949, "RA_OF_ASC_NODE": 334.0295, "ARG_OF_PERICENTER": 70.3068, "MEAN_ANOMALY": 291.8167, "EPHEMERIS_TYPE": 0, "CLASSIFICATION_TYPE": "U", "NORAD_CAT_ID": 34412, "ELEMENT_SET_NO": 999, "REV_AT_EPOCH": 87578, "BSTAR": 0.0017271674, "MEAN_MOTION_DOT": 7.811e-05, "MEAN_MOTION_DDOT": 0}, "tle": {"line1": "1 34412U 93036RD  25341.73019011  .00007811  00000+0  17272-2 0  9999", "line2": "2 34412  73.9490 334.0295 0187089  70.3068 291.8167 14.47055817875782"}}, "geometry": {"type": "Point", "coordinates": [149.10470504341023, 12.193296816373898]}}, {"type": "Feature", "properties": {"norad_id": 34413, "name": "COSMOS 2251 DEB", "group": "cosmos-2251-debris", "lat": -32.70537097548206, "lon": 103.25791498297065, "alt_km": 847.0995466412696, "timestamp": "2025-12-08T10:52:03.342622+00:00", "meta": {"OBJECT_NAME": "COSMOS 2251 DEB", "OBJECT_ID": "1993-036RE", "EPOCH": "2025-12-07T20:41:09.340224", "MEAN_MOTION": 14.29038277, "ECCENTRICITY": 0.00908108, "INCLINATION": 74.0325, "RA_OF_ASC_NODE": 273.7364, "ARG_OF_PERICENTER": 351.1358, "MEAN_ANOMALY": 64.9714, "EPHEMERIS_TYPE": 0, "CLASSIFICATION_TYPE": "U", "NORAD_CAT_ID": 34413, "ELEMENT_SET_NO": 999, "REV_AT_EPOCH": 87061, "BSTAR": 0.0030806709, "MEAN_MOTION_DOT": 8.137e-05, "MEAN_MOTION_DDOT": 0}, "tle": {"line1": "1 34413U 93036RE  25341.86191366  .00008137  00000+0  30807-2 0  9999", "line2": "2 34413  74.0325 273.7364 0090810 351.1358  64.9714 14.29038277870610"}}, "geometry": {"type": "Point", "coordinates": [103.25791498297065, -32.70537097548206]}}, {"type": "Feature", "properties": {"norad_id": 34420, "name": "COSMOS 2251 DEB", "group": "cosmos-2251-debris", "lat": 58.82779136329374, "lon": 140.497401156919, "alt_km": 734.9528736519878, "timestamp": "2025-12-08T10:52:03.342632+00:00", "meta": {"OBJECT_NAME": "COSMOS 2251 DEB", "OBJECT_ID": "1993-036RM", "EPOCH": "2025-12-07T18:47:01.226976", "MEAN_MOTION": 14.68274739, "ECCENTRICITY": 0.01068417, "INCLINATION": 74.0337, "RA_OF_ASC_NODE": 113.5473, "ARG_OF_PERICENTER": 235.828, "MEAN_ANOMALY": 246.3969, "EPHEMERIS_TYPE": 0, "CLASSIFICATION_TYPE": "U", "NORAD_CAT_ID": 34420, "ELEMENT_SET_NO": 999, "REV_AT_EPOCH": 89697, "BSTAR": 0.00044683951, "MEAN_MOTION_DOT": 2.775e-05, "MEAN_MOTION_DDOT": 0}, "tle": {"line1": "1 34420U 93036RM  25341.78265309  .00002775  00000+0  44684-3 0  9998", "line2": "2 34420  74.0337 113.5473 0106841 235.8280 246.3969 14.68274739896970"}}, "geometry": {"type": "Point", "coordinates": [140.497401156919, 58.82779136329374]}}, {"type": "Feature", "properties": {"norad_id": 34425, "name": "COSMOS 2251 DEB", "group": "cosmos-2251-debris", "lat": -61.438868101481575, "lon": -85.50249223801686, "alt_km": 683.1918690615466, "timestamp": "2025-12-08T10:52:03.342642+00:00", "meta": {"OBJECT_NAME": "COSMOS 2251 DEB", "OBJECT_ID": "1993-036RS", "EPOCH": "2025-12-07T22:15:06.538464", "MEAN_MOTION": 14.62084331, "ECCENTRICITY": 0.00251768, "INCLINATION": 74.0203, "RA_OF_ASC_NODE": 63.7404, "ARG_OF_PERICENTER": 191.4183, "MEAN_ANOMALY": 168.6416, "EPHEMERIS_TYPE": 0, "CLASSIFICATION_TYPE": "U", "NORAD_CAT_ID": 34425, "ELEMENT_SET_NO": 999, "REV_AT_EPOCH": 88670, "BSTAR": 0.00086958121, "MEAN_MOTION_DOT": 4.36e-05, "MEAN_MOTION_DDOT": 0}, "tle": {"line1": "1 34425U 93036RS  25341.92715901  .00004360  00000+0  86958-3 0  9999", "line2": "2 34425  74.0203  63.7404 0025176 191.4183 168.6416 14.62084331886701"}}, "geometry": {"type": "Point", "coordinates": [-85.50249223801686, -61.438868101481575]}}, {"type": "Feature", "properties": {"norad_id": 34429, "name": "COSMOS 2251 DEB", "group": "cosmos-2251-debris", "lat": 4.953155107027392, "lon": -4.107867280281813, "alt_km": 453.81299806324114, "timestamp": "2025-12-08T10:52:03.342653+00:00", "meta": {"OBJECT_NAME": "COSMOS 2251 DEB", "OBJECT_ID": "1993-036RW", "EPOCH": "2025-12-07T23:52:29.653824", "MEAN_MOTION": 15.39166657, "ECCENTRICITY": 0.00060343, "INCLINATION": 73.9709, "RA_OF_ASC_NODE": 178.312, "ARG_OF_PERICENTER": 22.8167, "MEAN_ANOMALY": 134.9127, "EPHEMERIS_TYPE": 0, "CLASSIFICATION_TYPE": "U", "NORAD_CAT_ID": 34429, "ELEMENT_SET_NO": 999, "REV_AT_EPOCH": 89375, "BSTAR": 0.0048458639, "MEAN_MOTION_DOT": 0.00193147, "MEAN_MOTION_DDOT": 0}, "tle": {"line1": "1 34429U 93036RW  25341.99478766  .00193147  00000+0  48459-2 0  9990", "line2": "2 34429  73.9709 178.3120 0006034  22.8167 134.9127 15.39166657893758"}}, "geometry": {"type": "Point", "coordinates": [-4.107867280281813, 4.953155107027392]}}, {"type": "Feature", "properties": {"norad_id": 34430, "name": "COSMOS 2251 DEB", "group": "cosmos-2251-debris", "lat": 13.218164311074261, "lon": -44.8771063312734, "alt_km": 718.0343764981972, "timestamp": "2025-12-08T10:52:03.342663+00:00", "meta": {"OBJECT_NAME": "COSMOS 2251 DEB", "OBJECT_ID": "1993-036RX", "EPOCH": "2025-12-07T23:07:48.438048", "MEAN_MOTION": 14.39607985, "ECCENTRICITY": 0.00601208, "INCLINATION": 74.0522, "RA_OF_ASC_NODE": 312.1737, "ARG_OF_PERICENTER": 22.9884, "MEAN_ANOMALY": 337.394, "EPHEMERIS_TYPE": 0, "CLASSIFICATION_TYPE": "U", "NORAD_CAT_ID": 34430, "ELEMENT_SET_NO": 999, "REV_AT_EPOCH": 87886, "BSTAR": 0.00074355164, "MEAN_MOTION_DOT": 2.347e-05, "MEAN_MOTION_DDOT": 0}, "tle": {"line1": "1 34430U 93036RX  25341.96375507  .00002347  00000+0  74355-3 0  9994", "line2": "2 34430  74.0522 312.1737 0060120  22.9884 337.3940 14.39607985878860"}}, "geometry": {"type": "Point", "coordinates": [-44.8771063312734, 13.218164311074261]}}, {"type": "Feature", "properties": {"norad_id": 34431, "name": "COSMOS 2251 DEB", "group": "cosmos-2251-debris", "lat": 72.38775167130983, "lon": -112.96011246921553, "alt_km": 786.0414542738208, "timestamp": "2025-12-08T10:52:03.342673+00:00", "meta": {"OBJECT_NAME": "COSMOS 2251 DEB", "OBJECT_ID": "1993-036RY", "EPOCH": "2025-12-07T22:43:01.681536", "MEAN_MOTION": 14.28750898, "ECCENTRICITY": 0.00684857, "INCLINATION": 74.0746, "RA_OF_ASC_NODE": 183.8758, "ARG_OF_PERICENTER": 170.8725, "MEAN_ANOMALY": 189.3688, "EPHEMERIS_TYPE": 0, "CLASSIFICATION_TYPE": "U", "NORAD_CAT_ID": 34431, "ELEMENT_SET_NO": 999, "REV_AT_EPOCH": 87074, "BSTAR": 0.00081346318, "MEAN_MOTION_DOT": 2.075e-05, "MEAN_MOTION_DDOT": 0}, "tle": {"line1": "1 34431U 93036RY  25341.94654724  .00002075  00000+0  81346-3 0  9990", "line2": "2 34431  74.0746 183.8758 0068485 170.8725 189.3688 14.28750898870747"}}, "geometry": {"type": "Point", "coordinates": [-112.96011246921553, 72.38775167130983]}}]}